NORAD_CAT_ID,OBJECT_NAME,OBJECT_TYPE,EPOCH,MEAN_MOTION,ECCENTRICITY,INCLINATION,RA_OF_ASC_NODE,ARG_OF_PERICENTER,MEAN_ANOMALY,BSTAR,MEAN_MOTION_DOT,MEAN_MOTION_DDOT,TLE_LINE0,TLE_LINE1,TLE_LINE2,SEMIMAJOR_AXIS,PERIOD,APOGEE,PERIGEE,DECAYED
52848.0,STARLINK-4202,PAYLOAD,2024-05-13 09:59:41,15.08838398,0.0001762,53.2151,140.6483,61.4748,298.6421,0.0012954,0.00020388,0.0,0 STARLINK-4202,1 52848U 22062U   24134.41645302  .00020388  00000-0  12954-2 0  9992,2 52848  53.2151 140.6483 0001762  61.4748 298.6421 15.08838398105357,6917.885,95.438,540.969,538.531,0.0
52848.0,STARLINK-4202,PAYLOAD,2024-05-13 17:56:36,15.08848283,0.0001801,53.2154,139.1608,62.4015,297.716,0.00067962,0.00010547,0.0,0 STARLINK-4202,1 52848U 22062U   24134.74764991  .00010547  00000-0  67962-3 0  9990,2 52848  53.2154 139.1608 0001801  62.4015 297.7160 15.08848283105404,6917.855,95.437,540.966,538.474,0.0
52848.0,STARLINK-4202,PAYLOAD,2024-05-14 05:04:18,15.08859432,0.0001787,53.2151,137.0794,61.7952,298.3221,0.00058553,9.048e-05,0.0,0 STARLINK-4202,1 52848U 22062U   24135.21132394  .00009048  00000-0  58553-3 0  9999,2 52848  53.2151 137.0794 0001787  61.7952 298.3221 15.08859432105963,6917.821,95.436,540.922,538.45,0.0
52848.0,STARLINK-4202,PAYLOAD,2024-05-14 09:50:27,15.08861848,0.0001793,53.2153,136.1873,61.7699,298.3474,0.00055202,8.513e-05,0.0,0 STARLINK-4202,1 52848U 22062U   24135.41004137  .00008513  00000-0  55202-3 0  9998,2 52848  53.2153 136.1873 0001793  61.7699 298.3474 15.08861848105502,6917.814,95.436,540.919,538.438,0.0
52848.0,STARLINK-4202,PAYLOAD,2024-05-15 06:30:27,15.08858121,0.0001791,53.2154,132.3207,64.3577,295.76,0.00022059,3.226e-05,0.0,0 STARLINK-4202,1 52848U 22062U   24136.27115317  .00003226  00000-0  22059-3 0  9996,2 52848  53.2154 132.3207 0001791  64.3577 295.7600 15.08858121106125,6917.825,95.436,540.929,538.451,0.0
52848.0,STARLINK-4202,PAYLOAD,2024-05-16 04:45:51,15.08844292,0.0001791,53.2159,128.1571,65.8503,294.2676,-7.5638e-05,-1.492e-05,0.0,0 STARLINK-4202,1 52848U 22062U   24137.19851315 -.00001492  00000-0 -75638-4 0  9990,2 52848  53.2159 128.1571 0001791  65.8503 294.2676 15.08844292106268,6917.867,95.437,540.971,538.493,0.0
52848.0,STARLINK-4202,PAYLOAD,2024-05-16 06:21:15,15.08843608,0.0001764,53.2166,127.8591,67.3498,292.768,-2.853e-05,-7.42e-06,0.0,0 STARLINK-4202,1 52848U 22062U   24137.26475755 -.00000742  00000-0 -28530-4 0  9994,2 52848  53.2166 127.8591 0001764  67.3498 292.7680 15.08843608105788,6917.869,95.437,540.955,538.514,0.0
52848.0,STARLINK-4202,PAYLOAD,2024-05-16 22:15:05,15.0884493,0.0001675,53.2173,124.8879,72.9394,287.1782,1.3821e-05,-6.8e-07,0.0,0 STARLINK-4202,1 52848U 22062U   24137.92715212 -.00000068  00000-0  13821-4 0  9999,2 52848  53.2173 124.8879 0001675  72.9394 287.1782 15.08844930105881,6917.865,95.437,540.889,538.572,0.0
52848.0,STARLINK-4202,PAYLOAD,2024-05-17 06:12:01,15.08847291,0.0001705,53.2176,123.4019,75.761,284.3571,5.6669e-05,6.14e-06,0.0,0 STARLINK-4202,1 52848U 22062U   24138.25834884  .00000614  00000-0  56669-4 0  9996,2 52848  53.2176 123.4019 0001705  75.7610 284.3571 15.08847291106420,6917.858,95.437,540.903,538.544,0.0
52848.0,STARLINK-4202,PAYLOAD,2024-05-17 15:44:19,15.0885252,0.0001796,53.2176,121.6177,77.6738,282.4455,2.8671e-05,1.68e-06,0.0,0 STARLINK-4202,1 52848U 22062U   24138.65578410  .00000168  00000-0  28671-4 0  9996,2 52848  53.2176 121.6177 0001796  77.6738 282.4455 15.08852520105999,6917.842,95.437,540.95,538.465,0.0
52848.0,STARLINK-4202,PAYLOAD,2024-05-18 04:27:25,15.08833337,0.0001992,53.218,119.2377,81.3786,278.7432,6.3567e-05,7.23e-06,0.0,0 STARLINK-4202,1 52848U 22062U   24139.18571738  .00000723  00000-0  63567-4 0  9991,2 52848  53.2180 119.2377 0001992  81.3786 278.7432 15.08833337106564,6917.901,95.438,541.144,538.388,0.0
52848.0,STARLINK-4202,PAYLOAD,2024-05-18 07:38:11,15.08840444,0.0001896,53.2177,118.6427,79.7647,280.3559,0.00010475,1.379e-05,0.0,0 STARLINK-4202,1 52848U 22062U   24139.31819258  .00001379  00000-0  10475-3 0  9995,2 52848  53.2177 118.6427 0001896  79.7647 280.3559 15.08840444106587,6917.879,95.438,541.056,538.432,0.0
52848.0,STARLINK-4202,PAYLOAD,2024-05-18 15:35:06,15.08852586,0.0001836,53.2162,117.1565,72.0613,288.0579,0.0001984,2.872e-05,0.0,0 STARLINK-4202,1 52848U 22062U   24139.64938327  .00002872  00000-0  19840-3 0  9994,2 52848  53.2162 117.1565 0001836  72.0613 288.0579 15.08852586106634,6917.842,95.437,540.977,538.437,0.0
52848.0,STARLINK-4202,PAYLOAD,2024-05-19 04:18:13,15.08825538,0.0001949,53.2172,114.7783,81.1547,278.9666,-0.00019288,-3.355e-05,0.0,0 STARLINK-4202,1 52848U 22062U   24140.17931950 -.00003355  00000-0 -19288-3 0  9994,2 52848  53.2172 114.7783 0001949  81.1547 278.9666 15.08825538106713,6917.925,95.438,541.138,538.441,0.0
52848.0,STARLINK-4202,PAYLOAD,2024-05-19 07:28:59,15.08827128,0.0001778,53.2159,114.1821,77.353,282.7661,-0.00015991,-2.831e-05,0.0,0 STARLINK-4202,1 52848U 22062U   24140.31179907 -.00002831  00000-0 -15991-3 0  9991,2 52848  53.2159 114.1821 0001778  77.3530 282.7661 15.08827128106247,6917.92,95.438,541.015,538.555,0.0
52848.0,STARLINK-4202,PAYLOAD,2024-05-20 04:08:59,15.08842918,0.0001699,53.2154,110.3169,79.972,280.1463,0.00023534,3.46e-05,0.0,0 STARLINK-4202,1 52848U 22062U   24141.17291584  .00003460  00000-0  23534-3 0  9991,2 52848  53.2154 110.3169 0001699  79.9720 280.1463 15.08842918106860,6917.871,95.437,540.912,538.561,0.0
52848.0,STARLINK-4202,PAYLOAD,2024-05-20 07:19:46,15.08849545,0.0001677,53.2152,109.7214,78.7029,281.4151,0.00053318,8.21e-05,0.0,0 STARLINK-4202,1 52848U 22062U   24141.30539523  .00008210  00000-0  53318-3 0  9995,2 52848  53.2152 109.7214 0001677  78.7029 281.4151 15.08849545106395,6917.851,95.437,540.876,538.556,0.0
52848.0,STARLINK-4202,PAYLOAD,2024-05-21 03:59:46,15.08841312,0.0001474,53.2153,105.8534,94.8091,265.3069,0.00012551,1.71e-05,0.0,0 STARLINK-4202,1 52848U 22062U   24142.16651581  .00001710  00000-0  12551-3 0  9991,2 52848  53.2153 105.8534 0001474  94.8091 265.3069 15.08841312107014,6917.876,95.437,540.761,538.722,0.0
52848.0,STARLINK-4202,PAYLOAD,2024-05-21 07:10:33,15.0883934,0.0001506,53.2156,105.2592,90.3906,269.7258,0.00011249,1.503e-05,0.0,0 STARLINK-4202,1 52848U 22062U   24142.29899714  .00001503  00000-0  11249-3 0  9990,2 52848  53.2156 105.2592 0001506  90.3906 269.7258 15.08839340106540,6917.882,95.438,540.789,538.706,0.0
52848.0,STARLINK-4202,PAYLOAD,2024-05-22 07:01:20,15.08845928,0.0001478,53.2171,100.7987,94.2939,265.8222,1.3523e-05,-7.3e-07,0.0,0 STARLINK-4202,1 52848U 22062U   24143.29259364 -.00000073  00000-0  13523-4 0  9992,2 52848  53.2171 100.7987 0001478  94.2939 265.8222 15.08845928107180,6917.862,95.437,540.75,538.705,0.0
52848.0,STARLINK-4202,PAYLOAD,2024-05-23 03:41:21,15.08831119,0.0001429,53.2173,96.9323,105.4556,254.6594,2.6014e-05,1.26e-06,0.0,0 STARLINK-4202,1 52848U 22062U   24144.15372159  .00000126  00000-0  26014-4 0  9993,2 52848  53.2173  96.9323 0001429 105.4556 254.6594 15.08831119107318,6917.908,95.438,540.761,538.784,0.0
52848.0,STARLINK-4202,PAYLOAD,2024-05-23 06:52:07,15.08830521,0.000146,53.2176,96.3381,105.8552,254.2601,1.7156e-05,-1.5e-07,0.0,0 STARLINK-4202,1 52848U 22062U   24144.28620280 -.00000015  00000-0  17156-4 0  9993,2 52848  53.2176  96.3381 0001460 105.8552 254.2601 15.08830521106842,6917.909,95.438,540.784,538.764,0.0
52848.0,STARLINK-4202,PAYLOAD,2024-05-24 03:32:07,15.08844956,0.0001335,53.2178,92.4738,101.7997,258.3145,6.2109e-05,7.01e-06,0.0,0 STARLINK-4202,1 52848U 22062U   24145.14731343  .00000701  00000-0  62109-4 0  9991,2 52848  53.2178  92.4738 0001335 101.7997 258.3145 15.08844956107460,6917.865,95.437,540.654,538.807,0.0
52848.0,STARLINK-4202,PAYLOAD,2024-05-24 06:42:53,15.08846815,0.0001312,53.2176,91.8782,100.9945,259.1195,7.7213e-05,9.41e-06,0.0,0 STARLINK-4202,1 52848U 22062U   24145.27979134  .00000941  00000-0  77213-4 0  9995,2 52848  53.2176  91.8782 0001312 100.9945 259.1195 15.08846815106996,6917.86,95.437,540.632,538.817,0.0
52848.0,STARLINK-4202,PAYLOAD,2024-05-25 01:47:32,15.0882984,0.0001153,53.2175,88.3049,101.5618,258.5504,4.0431e-05,3.56e-06,0.0,0 STARLINK-4202,1 52848U 22062U   24146.07468371  .00000356  00000-0  40431-4 0  9992,2 52848  53.2175  88.3049 0001153 101.5618 258.5504 15.08829840107604,6917.911,95.438,540.574,538.979,0.0
52848.0,STARLINK-4202,PAYLOAD,2024-05-25 12:55:15,15.08825615,0.0001045,53.2174,86.2304,103.0479,257.063,-3.4462e-05,-8.36e-06,0.0,0 STARLINK-4202,1 52848U 22062U   24146.53837173 -.00000836  00000-0 -34462-4 0  9995,2 52848  53.2174  86.2304 0001045 103.0479 257.0630 15.08825615107189,6917.924,95.438,540.512,539.066,0.0
52848.0,STARLINK-4202,PAYLOAD,2024-05-26 04:49:06,15.08841822,0.0001072,53.2172,83.255,98.0555,262.0559,-1.7717e-05,-5.7e-06,0.0,0 STARLINK-4202,1 52848U 22062U   24147.20076450 -.00000570  00000-0 -17717-4 0  9992,2 52848  53.2172  83.2550 0001072  98.0555 262.0559 15.08841822107774,6917.875,95.437,540.481,538.998,0.0
52848.0,STARLINK-4202,PAYLOAD,2024-05-26 19:07:34,15.08835341,0.000101,53.2169,80.5788,113.7346,246.3753,8.8389e-05,1.119e-05,0.0,0 STARLINK-4202,1 52848U 22062U   24147.79692578  .00001119  00000-0  88389-4 0  9992,2 52848  53.2169  80.5788 0001010 113.7346 246.3753 15.08835341107374,6917.895,95.438,540.458,539.061,0.0
52848.0,STARLINK-4202,PAYLOAD,2024-05-27 12:36:48,15.08838516,0.0001119,53.2177,77.308,97.1985,262.9134,0.00013625,1.881e-05,0.0,0 STARLINK-4202,1 52848U 22062U   24148.52556496  .00001881  00000-0  13625-3 0  9998,2 52848  53.2177  77.3080 0001119  97.1985 262.9134 15.08838516107976,6917.885,95.438,540.524,538.976,0.0
52848.0,STARLINK-4202,PAYLOAD,2024-05-28 12:27:35,15.08842158,0.0001085,53.2177,72.8476,103.9415,256.1698,4.4748e-05,4.24e-06,0.0,0 STARLINK-4202,1 52848U 22062U   24149.51916523  .00000424  00000-0  44748-4 0  9992,2 52848  53.2177  72.8476 0001085 103.9415 256.1698 15.08842158107631,6917.874,95.437,540.489,538.988,0.0
